[
  {
    "OBJECT_NAME": "STARLINK-30755",
    "OBJECT_ID": "23167M",
    "EPOCH": "2025-11-11T07:05:38.716800",
    "MEAN_MOTION": 15.02550508,
    "ECCENTRICITY": 0.0001448,
    "INCLINATION": 43.0051,
    "RA_OF_ASC_NODE": 69.4261,
    "ARG_OF_PERICENTER": 273.3046,
    "MEAN_ANOMALY": 86.763,
    "EPHEMERIS_TYPE": 0,
    "CLASSIFICATION_TYPE": "U",
    "NORAD_CAT_ID": 58186,
    "ELEMENT_SET_NO": 999,
    "REV_AT_EPOCH": 11314,
    "BSTAR": 0.00016176,
    "MEAN_MOTION_DOT": 1.983e-05,
    "MEAN_MOTION_DDOT": 0.0,
    "TLE_LINE1": "1 58186U 23167M   25315.29558700  .00001983  00000+0  16176-3 0  9993",
    "TLE_LINE2": "2 58186  43.0051  69.4261 0001448 273.3046  86.7630 15.02550508113144",
    "COMMENT": "Grouped by shell and plane from TLE"
  },
  {
    "OBJECT_NAME": "STARLINK-30826",
    "OBJECT_ID": "23167P",
    "EPOCH": "2025-11-11T07:04:03.314784",
    "MEAN_MOTION": 15.02542511,
    "ECCENTRICITY": 0.0001285,
    "INCLINATION": 43.0042,
    "RA_OF_ASC_NODE": 69.4186,
    "ARG_OF_PERICENTER": 272.9242,
    "MEAN_ANOMALY": 87.1454,
    "EPHEMERIS_TYPE": 0,
    "CLASSIFICATION_TYPE": "U",
    "NORAD_CAT_ID": 58188,
    "ELEMENT_SET_NO": 999,
    "REV_AT_EPOCH": 11314,
    "BSTAR": 0.0,
    "MEAN_MOTION_DOT": -2.91e-06,
    "MEAN_MOTION_DDOT": 0.0,
    "TLE_LINE1": "1 58188U 23167P   25315.29448281 -.00000291  00000+0 -64860-5 0  9995",
    "TLE_LINE2": "2 58188  43.0042  69.4186 0001285 272.9242  87.1454 15.02542511113148",
    "COMMENT": "Grouped by shell and plane from TLE"
  },
  {
    "OBJECT_NAME": "STARLINK-30796",
    "OBJECT_ID": "23167Q",
    "EPOCH": "2025-11-11T07:08:50.578368",
    "MEAN_MOTION": 15.02545695,
    "ECCENTRICITY": 0.0001504,
    "INCLINATION": 43.0043,
    "RA_OF_ASC_NODE": 69.4412,
    "ARG_OF_PERICENTER": 280.4794,
    "MEAN_ANOMALY": 79.5879,
    "EPHEMERIS_TYPE": 0,
    "CLASSIFICATION_TYPE": "U",
    "NORAD_CAT_ID": 58189,
    "ELEMENT_SET_NO": 999,
    "REV_AT_EPOCH": 11314,
    "BSTAR": 7.965600000000001e-05,
    "MEAN_MOTION_DOT": 8.73e-06,
    "MEAN_MOTION_DDOT": 0.0,
    "TLE_LINE1": "1 58189U 23167Q   25315.29780762  .00000873  00000+0  79656-4 0  9991",
    "TLE_LINE2": "2 58189  43.0043  69.4412 0001504 280.4794  79.5879 15.02545695113144",
    "COMMENT": "Grouped by shell and plane from TLE"
  },
  {
    "OBJECT_NAME": "STARLINK-30820",
    "OBJECT_ID": "23167R",
    "EPOCH": "2025-11-11T07:13:38.592768",
    "MEAN_MOTION": 15.02538767,
    "ECCENTRICITY": 0.0001533,
    "INCLINATION": 43.004,
    "RA_OF_ASC_NODE": 69.4677,
    "ARG_OF_PERICENTER": 276.7639,
    "MEAN_ANOMALY": 83.3029,
    "EPHEMERIS_TYPE": 0,
    "CLASSIFICATION_TYPE": "U",
    "NORAD_CAT_ID": 58190,
    "ELEMENT_SET_NO": 999,
    "REV_AT_EPOCH": 11314,
    "BSTAR": 6.3825e-05,
    "MEAN_MOTION_DOT": 6.59e-06,
    "MEAN_MOTION_DDOT": 0.0,
    "TLE_LINE1": "1 58190U 23167R   25315.30114112  .00000659  00000+0  63825-4 0  9998",
    "TLE_LINE2": "2 58190  43.0040  69.4677 0001533 276.7639  83.3029 15.02538767113146",
    "COMMENT": "Grouped by shell and plane from TLE"
  },
  {
    "OBJECT_NAME": "STARLINK-30807",
    "OBJECT_ID": "23167T",
    "EPOCH": "2025-11-11T06:59:15.728928",
    "MEAN_MOTION": 15.0254344,
    "ECCENTRICITY": 0.0001341,
    "INCLINATION": 43.0013,
    "RA_OF_ASC_NODE": 69.3951,
    "ARG_OF_PERICENTER": 273.0667,
    "MEAN_ANOMALY": 87.0022,
    "EPHEMERIS_TYPE": 0,
    "CLASSIFICATION_TYPE": "U",
    "NORAD_CAT_ID": 58192,
    "ELEMENT_SET_NO": 999,
    "REV_AT_EPOCH": 11314,
    "BSTAR": 0.0008139800000000001,
    "MEAN_MOTION_DOT": 0.00010811,
    "MEAN_MOTION_DDOT": 0.0,
    "TLE_LINE1": "1 58192U 23167T   25315.29115427  .00010811  00000+0  81398-3 0  9993",
    "TLE_LINE2": "2 58192  43.0013  69.3951 0001341 273.0667  87.0022 15.02543440113148",
    "COMMENT": "Grouped by shell and plane from TLE"
  },
  {
    "OBJECT_NAME": "STARLINK-30798",
    "OBJECT_ID": "23167X",
    "EPOCH": "2025-11-11T07:42:24.584832",
    "MEAN_MOTION": 15.02553263,
    "ECCENTRICITY": 0.0001243,
    "INCLINATION": 43.005,
    "RA_OF_ASC_NODE": 69.6151,
    "ARG_OF_PERICENTER": 272.1185,
    "MEAN_ANOMALY": 87.9515,
    "EPHEMERIS_TYPE": 0,
    "CLASSIFICATION_TYPE": "U",
    "NORAD_CAT_ID": 58196,
    "ELEMENT_SET_NO": 999,
    "REV_AT_EPOCH": 11314,
    "BSTAR": 1.2465e-05,
    "MEAN_MOTION_DOT": -3.5e-07,
    "MEAN_MOTION_DDOT": 0.0,
    "TLE_LINE1": "1 58196U 23167X   25315.32111788 -.00000035  00000+0  12465-4 0  9995",
    "TLE_LINE2": "2 58196  43.0050  69.6151 0001243 272.1185  87.9515 15.02553263113144",
    "COMMENT": "Grouped by shell and plane from TLE"
  }
]